IRIDIUM 155             
1 43573U 18061E   23215.76933327  .00000456  00000+0  15560-3 0  9995
2 43573  86.3998 134.8892 0002128  91.5418 268.6021 14.34218262263091
IRIDIUM 154             
1 43574U 18061F   23216.30845324  .00000116  00000+0  34339-4 0  9995
2 43574  86.4001 134.7468 0002180  76.3603 283.7836 14.34217245263217
IRIDIUM 163             
1 43575U 18061G   23215.94058200  .00000421  00000+0  14339-3 0  9990
2 43575  86.4000 134.8483 0002274  82.0559 278.0895 14.34220248263133
IRIDIUM 156             
1 43576U 18061H   23215.70590749  .00000371  00000+0  12527-3 0  9995
2 43576  86.4000 134.9521 0002434  88.9231 271.2243 14.34220360263089
IRIDIUM 164             
1 43577U 18061J   23215.82641851  .00000407  00000+0  13812-3 0  9998
2 43577  86.4000 134.9260 0002462  81.0183 279.1292 14.34218218263159
IRIDIUM 159             
1 43578U 18061K   23216.28308143  .00000095  00000+0  26953-4 0  9998
2 43578  86.3999 134.6943 0002185  82.2161 277.9283 14.34216335263189
IRIDIUM 180             
1 43922U 19002A   23215.65466302  .00000178  00000+0  56351-4 0  9996
2 43922  86.3930  71.8144 0002189  81.8453 278.2991 14.34213268238741
IRIDIUM 176             
1 43923U 19002B   23215.68918084  .00001221  00000+0  18981-3 0  9995
2 43923  86.6061  71.8371 0002462  88.2324 271.9175 14.72245704244983
IRIDIUM 168             
1 43924U 19002C   23216.13670647  .00000314  00000+0  10516-3 0  9995
2 43924  86.3932  71.6604 0002136  83.1170 277.0269 14.34220059238759
IRIDIUM 173             
1 43925U 19002D   23216.12400744  .00000349  00000+0  11763-3 0  9997
2 43925  86.3928  71.5975 0002094  83.9826 276.1608 14.34221332238745
IRIDIUM 169             
1 43926U 19002E   23215.76859199  .00000470  00000+0  14705-3 0  9993
2 43926  86.4211 103.3793 0003174 158.5719 201.5613 14.38598224239496
IRIDIUM 172             
1 43927U 19002F   23215.14090792  .00000356  00000+0  11990-3 0  9998
2 43927  86.3930  72.0139 0002187  84.9449 275.1996 14.34215848238602
IRIDIUM 175             
1 43928U 19002G   23216.09073288  .00001280  00000+0  19912-3 0  9994
2 43928  86.1478  62.7816 0002325  84.4483 275.6998 14.72239929245033
IRIDIUM 171             
1 43929U 19002H   23215.68003282  .00000327  00000+0  10961-3 0  9992
2 43929  86.3938  71.9783 0002228  82.4359 277.7090 14.34217992238676
IRIDIUM 170             
1 43930U 19002J   23215.69533763  .00001225  00000+0  19044-3 0  9996
2 43930  86.6060  71.8393 0002377  89.2297 270.9192 14.72245752244991
IRIDIUM 167             
1 43931U 19002K   23215.67369044  .00000469  00000+0  16055-3 0  9992
2 43931  86.3929  71.8040 0002268  83.7917 276.3538 14.34217650238675
IRIDIUM 181             
1 56726U 23068S   23215.73644064  .00000493  00000+0  13965-3 0  9994
2 56726  86.8627 110.0966 0003942  90.4400 269.7253 14.43620747 11197
IRIDIUM 177             
1 56727U 23068T   23215.75388496  .00001755  00000+0  22754-3 0  9999
2 56727  86.1970 106.5582 0002720  76.9533 283.1992 14.80226991 11278
IRIDIUM 174             
1 56728U 23068U   23216.08647809  .00001757  00000+0  22776-3 0  9999
2 56728  86.1976 106.4781 0002481  83.5716 276.5787 14.80230218 11327
IRIDIUM 178             
1 56729U 23068V   23216.08097617  .00001743  00000+0  22582-3 0  9996
2 56729  86.5778 108.8751 0002717  84.1162 276.0369 14.80264021 11329
IRIDIUM 179             
1 56730U 23068W   23215.73758906  .00001761  00000+0  22814-3 0  9992
2 56730  86.6787 109.1473 0002840  81.4297 278.7246 14.80266809 11276
